CZ-2C R/B               
1 54039U 22132E   26025.96995978  .00045928  00000+0  60603-3 0  9993
2 54039  97.2955  28.1209 0016673 246.0566 113.8944 15.58098283183713
GSLV R/B                
1 54149U 22138AN  26025.86154316  .00004853  00000+0  42413-3 0  9994
2 54149  87.3846 180.6953 0019856 311.4321  48.5204 14.96428869177529
XRISM                   
1 57800U 23137A   26025.57643411  .00008635  00000+0  49945-3 0  9997
2 57800  31.0009 202.3993 0008048 327.0134  33.0001 15.10920839131261
ACS3                    
1 59588U 24077B   26026.27565280  .00033660  00000+0  28003-1 0  9997
2 59588  97.2319 336.9186 0049310 216.9415 142.8348 13.87798555 88317
SZ-21 MODULE            
1 66515U 25246C   26025.60489789  .00040571  00000+0  39793-3 0  9998
2 66515  41.4752 107.9254 0003260 237.6166 122.4359 15.65292049 11313
