CCSDS_OMM_VERS = 2.0
CREATION_DATE  = 
ORIGINATOR     = 

OBJECT_NAME    = CZ-2C R/B
OBJECT_ID      = 2022-132E
CENTER_NAME    = EARTH
REF_FRAME      = TEME
TIME_SYSTEM    = UTC
MEAN_ELEMENT_THEORY = SGP/SGP4

EPOCH          = 2026-01-25T23:16:44.524992
MEAN_MOTION    = 15.58098283
ECCENTRICITY   = .00166736
INCLINATION    = 97.2955
RA_OF_ASC_NODE = 28.1209
ARG_OF_PERICENTER = 246.0566
MEAN_ANOMALY   = 113.8944

EPHEMERIS_TYPE = 0
CLASSIFICATION_TYPE = U
NORAD_CAT_ID   = 54039
ELEMENT_SET_NO = 999
REV_AT_EPOCH   = 18371
BSTAR          = .60602709E-3
MEAN_MOTION_DOT = .45928E-3
MEAN_MOTION_DDOT = 0

CCSDS_OMM_VERS = 2.0
CREATION_DATE  = 
ORIGINATOR     = 

OBJECT_NAME    = GSLV R/B
OBJECT_ID      = 2022-138AN
CENTER_NAME    = EARTH
REF_FRAME      = TEME
TIME_SYSTEM    = UTC
MEAN_ELEMENT_THEORY = SGP/SGP4

EPOCH          = 2026-01-25T20:40:37.329024
MEAN_MOTION    = 14.96428869
ECCENTRICITY   = .00198564
INCLINATION    = 87.3846
RA_OF_ASC_NODE = 180.6953
ARG_OF_PERICENTER = 311.4321
MEAN_ANOMALY   = 48.5204

EPHEMERIS_TYPE = 0
CLASSIFICATION_TYPE = U
NORAD_CAT_ID   = 54149
ELEMENT_SET_NO = 999
REV_AT_EPOCH   = 17752
BSTAR          = .42413196E-3
MEAN_MOTION_DOT = .4853E-4
MEAN_MOTION_DDOT = 0

CCSDS_OMM_VERS = 2.0
CREATION_DATE  = 
ORIGINATOR     = 

OBJECT_NAME    = XRISM
OBJECT_ID      = 2023-137A
CENTER_NAME    = EARTH
REF_FRAME      = TEME
TIME_SYSTEM    = UTC
MEAN_ELEMENT_THEORY = SGP/SGP4

EPOCH          = 2026-01-25T13:50:03.907104
MEAN_MOTION    = 15.10920839
ECCENTRICITY   = .0008048
INCLINATION    = 31.0009
RA_OF_ASC_NODE = 202.3993
ARG_OF_PERICENTER = 327.0134
MEAN_ANOMALY   = 33.0001

EPHEMERIS_TYPE = 0
CLASSIFICATION_TYPE = U
NORAD_CAT_ID   = 57800
ELEMENT_SET_NO = 999
REV_AT_EPOCH   = 13126
BSTAR          = .49945E-3
MEAN_MOTION_DOT = .8635E-4
MEAN_MOTION_DDOT = 0

CCSDS_OMM_VERS = 2.0
CREATION_DATE  = 
ORIGINATOR     = 

OBJECT_NAME    = ACS3
OBJECT_ID      = 2024-077B
CENTER_NAME    = EARTH
REF_FRAME      = TEME
TIME_SYSTEM    = UTC
MEAN_ELEMENT_THEORY = SGP/SGP4

EPOCH          = 2026-01-26T06:36:56.401920
MEAN_MOTION    = 13.87798555
ECCENTRICITY   = .00493107
INCLINATION    = 97.2319
RA_OF_ASC_NODE = 336.9186
ARG_OF_PERICENTER = 216.9415
MEAN_ANOMALY   = 142.8348

EPHEMERIS_TYPE = 0
CLASSIFICATION_TYPE = U
NORAD_CAT_ID   = 59588
ELEMENT_SET_NO = 999
REV_AT_EPOCH   = 8831
BSTAR          = .28002601E-1
MEAN_MOTION_DOT = .3366E-3
MEAN_MOTION_DDOT = 0

CCSDS_OMM_VERS = 2.0
CREATION_DATE  = 
ORIGINATOR     = 

OBJECT_NAME    = SZ-21 MODULE
OBJECT_ID      = 2025-246C
CENTER_NAME    = EARTH
REF_FRAME      = TEME
TIME_SYSTEM    = UTC
MEAN_ELEMENT_THEORY = SGP/SGP4

EPOCH          = 2026-01-25T14:31:03.177696
MEAN_MOTION    = 15.65292049
ECCENTRICITY   = .000326
INCLINATION    = 41.4752
RA_OF_ASC_NODE = 107.9254
ARG_OF_PERICENTER = 237.6166
MEAN_ANOMALY   = 122.4359

EPHEMERIS_TYPE = 0
CLASSIFICATION_TYPE = U
NORAD_CAT_ID   = 66515
ELEMENT_SET_NO = 999
REV_AT_EPOCH   = 1131
BSTAR          = .39793E-3
MEAN_MOTION_DOT = .40571E-3
MEAN_MOTION_DDOT = 0

